start=new Date('2022-09-28T00:00:00.000Z').valueOf();
sats=[{"FILE":"3585092","INCLINATION":"53.2175","RCS_SIZE":"LARGE","SEMIMAJOR_AXIS":"6917.870","APOAPSIS":"540.985","REV_AT_EPOCH":"3310","CLASSIFICATION_TYPE":"U","LAUNCH_DATE":"2022-03-03","OBJECT_NAME":"STARLINK-3565","TIME_SYSTEM":"UTC","OBJECT_TYPE":"PAYLOAD","ARG_OF_PERICENTER":"60.2273","EPHEMERIS_TYPE":"0","OBJECT_ID":"2022-022AL","MEAN_ELEMENT_THEORY":"SGP4","DECAY_DATE":null,"REF_FRAME":"TEME","MEAN_ANOMALY":"299.8899","CENTER_NAME":"EARTH","ELEMENT_SET_NO":"999","BSTAR":"0.00023462000000","MEAN_MOTION_DOT":"0.00003448","PERIOD":"95.437","COUNTRY_CODE":"US","MEAN_MOTION":"15.08843466","NORAD_CAT_ID":"51886","SITE":"AFETR","GP_ID":"213637178","EPOCH":"2022-09-27T03:34:05.001600","TLE_LINE1":"1 51886U 22022AL  22270.14866900  .00003448  00000-0  23462-3 0  9992","TLE_LINE2":"2 51886  53.2175 253.4264 0001807  60.2273 299.8899 15.08843466 33101","MEAN_MOTION_DDOT":"0.0000000000000","PERIAPSIS":"538.485","ECCENTRICITY":"0.00018070","RA_OF_ASC_NODE":"253.4264"},{"TLE_LINE2":"2 51887  53.2187 251.0978 0002208  56.2700 303.8502 15.08841167 33177","TLE_LINE1":"1 51887U 22022AM  22270.66755411  .00001207  00000-0  93900-4 0  9990","ECCENTRICITY":"0.00022080","RA_OF_ASC_NODE":"251.0978","PERIAPSIS":"538.214","MEAN_MOTION_DDOT":"0.0000000000000","NORAD_CAT_ID":"51887","SITE":"AFETR","GP_ID":"213668571","EPOCH":"2022-09-27T16:01:16.675104","COUNTRY_CODE":"US","MEAN_MOTION":"15.08841167","ELEMENT_SET_NO":"999","REF_FRAME":"TEME","MEAN_ANOMALY":"303.8502","CENTER_NAME":"EARTH","MEAN_MOTION_DOT":"0.00001207","BSTAR":"0.00009390000000","PERIOD":"95.437","DECAY_DATE":null,"MEAN_ELEMENT_THEORY":"SGP4","OBJECT_TYPE":"PAYLOAD","TIME_SYSTEM":"UTC","ARG_OF_PERICENTER":"56.2700","OBJECT_NAME":"STARLINK-3551","EPHEMERIS_TYPE":"0","OBJECT_ID":"2022-022AM","CLASSIFICATION_TYPE":"U","LAUNCH_DATE":"2022-03-03","FILE":"3585280","SEMIMAJOR_AXIS":"6917.877","APOAPSIS":"541.269","REV_AT_EPOCH":"3317","RCS_SIZE":"LARGE","INCLINATION":"53.2187"},{"CLASSIFICATION_TYPE":"U","LAUNCH_DATE":"2022-03-03","FILE":"3585280","REV_AT_EPOCH":"3320","APOAPSIS":"540.800","SEMIMAJOR_AXIS":"6917.826","RCS_SIZE":"LARGE","INCLINATION":"53.2148","MEAN_ELEMENT_THEORY":"SGP4","DECAY_DATE":null,"ARG_OF_PERICENTER":"57.3844","TIME_SYSTEM":"UTC","OBJECT_TYPE":"PAYLOAD","OBJECT_NAME":"STARLINK-3536","EPHEMERIS_TYPE":"0","OBJECT_ID":"2022-022AN","COUNTRY_CODE":"US","MEAN_MOTION":"15.08857728","ELEMENT_SET_NO":"999","CENTER_NAME":"EARTH","MEAN_ANOMALY":"302.7302","REF_FRAME":"TEME","PERIOD":"95.436","BSTAR":"0.00032965000000","MEAN_MOTION_DOT":"0.00004965","TLE_LINE2":"2 51888  53.2148 250.4694 0001603  57.3844 302.7302 15.08857728 33202","TLE_LINE1":"1 51888U 22022AN  22270.80739293  .00004965  00000-0  32965-3 0  9994","ECCENTRICITY":"0.00016030","RA_OF_ASC_NODE":"250.4694","PERIAPSIS":"538.582","MEAN_MOTION_DDOT":"0.0000000000000","NORAD_CAT_ID":"51888","GP_ID":"213666826","EPOCH":"2022-09-27T19:22:38.749152","SITE":"AFETR"},{"COUNTRY_CODE":"US","MEAN_MOTION":"15.08835352","CENTER_NAME":"EARTH","MEAN_ANOMALY":"305.7899","REF_FRAME":"TEME","ELEMENT_SET_NO":"999","PERIOD":"95.438","BSTAR":"0.00011542000000","MEAN_MOTION_DOT":"0.00001549","TLE_LINE1":"1 51889U 22022AP  22270.85523565  .00001549  00000-0  11542-3 0  9996","TLE_LINE2":"2 51889  53.2164 250.2523 0001805  54.3261 305.7899 15.08835352 33207","PERIAPSIS":"538.511","MEAN_MOTION_DDOT":"0.0000000000000","ECCENTRICITY":"0.00018050","RA_OF_ASC_NODE":"250.2523","NORAD_CAT_ID":"51889","GP_ID":"213667576","EPOCH":"2022-09-27T20:31:32.360160","SITE":"AFETR","CLASSIFICATION_TYPE":"U","LAUNCH_DATE":"2022-03-03","FILE":"3585280","INCLINATION":"53.2164","RCS_SIZE":"LARGE","REV_AT_EPOCH":"3320","SEMIMAJOR_AXIS":"6917.895","APOAPSIS":"541.008","MEAN_ELEMENT_THEORY":"SGP4","DECAY_DATE":null,"OBJECT_NAME":"STARLINK-3547","ARG_OF_PERICENTER":"54.3261","TIME_SYSTEM":"UTC","OBJECT_TYPE":"PAYLOAD","EPHEMERIS_TYPE":"0","OBJECT_ID":"2022-022AP"},{"MEAN_ELEMENT_THEORY":"SGP4","DECAY_DATE":null,"EPHEMERIS_TYPE":"0","OBJECT_ID":"2022-022AQ","ARG_OF_PERICENTER":"67.1554","TIME_SYSTEM":"UTC","OBJECT_TYPE":"PAYLOAD","OBJECT_NAME":"STARLINK-3519","LAUNCH_DATE":"2022-03-03","CLASSIFICATION_TYPE":"U","REV_AT_EPOCH":"3309","APOAPSIS":"541.139","SEMIMAJOR_AXIS":"6917.910","INCLINATION":"53.2186","RCS_SIZE":"LARGE","FILE":"3585092","ECCENTRICITY":"0.00019720","RA_OF_ASC_NODE":"253.4962","PERIAPSIS":"538.411","MEAN_MOTION_DDOT":"0.0000000000000","TLE_LINE2":"2 51890  53.2186 253.4962 0001972  67.1554 292.9646 15.08830302 33091","TLE_LINE1":"1 51890U 22022AQ  22270.13396647  .00000970  00000-0  79071-4 0  9997","GP_ID":"213637678","EPOCH":"2022-09-27T03:12:54.703008","SITE":"AFETR","NORAD_CAT_ID":"51890","MEAN_MOTION":"15.08830302","COUNTRY_CODE":"US","PERIOD":"95.438","MEAN_MOTION_DOT":"0.00000970","BSTAR":"0.00007907100000","ELEMENT_SET_NO":"999","MEAN_ANOMALY":"292.9646","CENTER_NAME":"EARTH","REF_FRAME":"TEME"},{"RCS_SIZE":"LARGE","INCLINATION":"53.2188","SEMIMAJOR_AXIS":"6917.880","APOAPSIS":"540.906","REV_AT_EPOCH":"3317","FILE":"3585092","LAUNCH_DATE":"2022-03-03","CLASSIFICATION_TYPE":"U","EPHEMERIS_TYPE":"0","OBJECT_ID":"2022-022AR","OBJECT_NAME":"STARLINK-3549","TIME_SYSTEM":"UTC","OBJECT_TYPE":"PAYLOAD","ARG_OF_PERICENTER":"54.4434","MEAN_ELEMENT_THEORY":"SGP4","DECAY_DATE":null,"BSTAR":"-0.00004453600000","MEAN_MOTION_DOT":"-0.00000997","PERIOD":"95.438","REF_FRAME":"TEME","CENTER_NAME":"EARTH","MEAN_ANOMALY":"305.6715","ELEMENT_SET_NO":"999","MEAN_MOTION":"15.08840268","COUNTRY_CODE":"US","SITE":"AFETR","GP_ID":"213637928","EPOCH":"2022-09-27T07:43:08.635008","NORAD_CAT_ID":"51891","MEAN_MOTION_DDOT":"0.0000000000000","PERIAPSIS":"538.583","RA_OF_ASC_NODE":"252.6463","ECCENTRICITY":"0.00016790","TLE_LINE1":"1 51891U 22022AR  22270.32162772 -.00000997  00000-0 -44536-4 0  9998","TLE_LINE2":"2 51891  53.2188 252.6463 0001679  54.4434 305.6715 15.08840268 33171"},{"CLASSIFICATION_TYPE":"U","LAUNCH_DATE":"2022-03-03","FILE":"3585212","REV_AT_EPOCH":"3319","APOAPSIS":"541.246","SEMIMAJOR_AXIS":"6917.914","INCLINATION":"53.2183","RCS_SIZE":"LARGE","MEAN_ELEMENT_THEORY":"SGP4","DECAY_DATE":null,"ARG_OF_PERICENTER":"38.0086","TIME_SYSTEM":"UTC","OBJECT_TYPE":"PAYLOAD","OBJECT_NAME":"STARLINK-3587","EPHEMERIS_TYPE":"0","OBJECT_ID":"2022-022AS","COUNTRY_CODE":"US","MEAN_MOTION":"15.08829121","ELEMENT_SET_NO":"999","CENTER_NAME":"EARTH","MEAN_ANOMALY":"322.1056","REF_FRAME":"TEME","PERIOD":"95.438","MEAN_MOTION_DOT":"0.00000419","BSTAR":"0.00004447300000","TLE_LINE2":"2 51892  53.2183 250.5349 0002121  38.0086 322.1056 15.08829121 33190","TLE_LINE1":"1 51892U 22022AS  22270.79267925  .00000419  00000-0  44473-4 0  9993","ECCENTRICITY":"0.00021210","RA_OF_ASC_NODE":"250.5349","PERIAPSIS":"538.311","MEAN_MOTION_DDOT":"0.0000000000000","NORAD_CAT_ID":"51892","EPOCH":"2022-09-27T19:01:27.487200","GP_ID":"213643104","SITE":"AFETR"},{"EPHEMERIS_TYPE":"0","OBJECT_ID":"2022-022AT","TIME_SYSTEM":"UTC","OBJECT_TYPE":"PAYLOAD","ARG_OF_PERICENTER":"52.1729","OBJECT_NAME":"STARLINK-3579","MEAN_ELEMENT_THEORY":"SGP4","DECAY_DATE":null,"SEMIMAJOR_AXIS":"6917.901","APOAPSIS":"541.136","REV_AT_EPOCH":"3316","INCLINATION":"53.2184","RCS_SIZE":"LARGE","FILE":"3585092","LAUNCH_DATE":"2022-03-03","CLASSIFICATION_TYPE":"U","SITE":"AFETR","EPOCH":"2022-09-27T04:21:47.304000","GP_ID":"213638431","NORAD_CAT_ID":"51893","ECCENTRICITY":"0.00019810","RA_OF_ASC_NODE":"253.2679","PERIAPSIS":"538.395","MEAN_MOTION_DDOT":"0.0000000000000","TLE_LINE2":"2 51893  53.2184 253.2679 0001981  52.1729 307.9443 15.08833279 33169","TLE_LINE1":"1 51893U 22022AT  22270.18179750  .00002913  00000-0  20111-3 0  9998","BSTAR":"0.00020111000000","MEAN_MOTION_DOT":"0.00002913","PERIOD":"95.438","ELEMENT_SET_NO":"999","REF_FRAME":"TEME","MEAN_ANOMALY":"307.9443","CENTER_NAME":"EARTH","MEAN_MOTION":"15.08833279","COUNTRY_CODE":"US"},{"RCS_SIZE":"LARGE","INCLINATION":"53.2201","REV_AT_EPOCH":"3316","APOAPSIS":"540.973","SEMIMAJOR_AXIS":"6917.887","FILE":"3585092","LAUNCH_DATE":"2022-03-03","CLASSIFICATION_TYPE":"U","EPHEMERIS_TYPE":"0","OBJECT_ID":"2022-022AU","OBJECT_NAME":"STARLINK-3595","ARG_OF_PERICENTER":"53.9738","OBJECT_TYPE":"PAYLOAD","TIME_SYSTEM":"UTC","DECAY_DATE":null,"MEAN_ELEMENT_THEORY":"SGP4","PERIOD":"95.438","BSTAR":"0.00000462530000","MEAN_MOTION_DOT":"-0.00000214","CENTER_NAME":"EARTH","MEAN_ANOMALY":"306.1417","REF_FRAME":"TEME","ELEMENT_SET_NO":"999","MEAN_MOTION":"15.08837949","COUNTRY_CODE":"US","GP_ID":"213637179","EPOCH":"2022-09-27T04:27:04.651200","SITE":"AFETR","NORAD_CAT_ID":"51894","PERIAPSIS":"538.530","MEAN_MOTION_DDOT":"0.0000000000000","RA_OF_ASC_NODE":"253.2575","ECCENTRICITY":"0.00017660","TLE_LINE1":"1 51894U 22022AU  22270.18547050 -.00000214  00000-0  46253-5 0  9991","TLE_LINE2":"2 51894  53.2201 253.2575 0001766  53.9738 306.1417 15.08837949 33165"},{"MEAN_MOTION":"15.08837933","COUNTRY_CODE":"US","PERIOD":"95.438","BSTAR":"-0.00003743400000","MEAN_MOTION_DOT":"-0.00000884","ELEMENT_SET_NO":"999","MEAN_ANOMALY":"314.7310","CENTER_NAME":"EARTH","REF_FRAME":"TEME","RA_OF_ASC_NODE":"251.2037","ECCENTRICITY":"0.00022690","MEAN_MOTION_DDOT":"0.0000000000000","PERIAPSIS":"538.182","TLE_LINE2":"2 51895  53.2193 251.2037 0002269  45.3867 314.7310 15.08837933 33175","TLE_LINE1":"1 51895U 22022AV  22270.64179768 -.00000884  00000-0 -37434-4 0  9994","EPOCH":"2022-09-27T15:24:11.319552","GP_ID":"213668572","SITE":"AFETR","NORAD_CAT_ID":"51895","LAUNCH_DATE":"2022-03-03","CLASSIFICATION_TYPE":"U","REV_AT_EPOCH":"3317","SEMIMAJOR_AXIS":"6917.887","APOAPSIS":"541.321","INCLINATION":"53.2193","RCS_SIZE":"LARGE","FILE":"3585280","MEAN_ELEMENT_THEORY":"SGP4","DECAY_DATE":null,"EPHEMERIS_TYPE":"0","OBJECT_ID":"2022-022AV","ARG_OF_PERICENTER":"45.3867","OBJECT_TYPE":"PAYLOAD","TIME_SYSTEM":"UTC","OBJECT_NAME":"STARLINK-3594"}];
